ONEWEB-0295             
1 49084U 21075K   21248.83335648 -.00004270  00000-0 -12722-3 0  9999
2 49084  87.4045   1.1008 0017498 251.8750  16.7990 15.34904070  3381
ONEWEB-0296             
1 49085U 21075L   21248.83335648 -.00012192  00000-0 -32579-3 0  9994
2 49085  87.4022   1.0715 0019280 250.4748 184.2447 15.38085647  3296
ONEWEB-0297             
1 49086U 21075M   21248.83335648 -.00007508  00000-0 -20839-3 0  9996
2 49086  87.4035   1.0839 0016387 245.0059 133.0212 15.37017436  3267
ONEWEB-0298             
1 49087U 21075N   21248.83335648 -.00005013  00000-0 -14210-3 0  9992
2 49087  87.4002   1.0828 0018930 241.6303 103.6333 15.36396586  3295
ONEWEB-0299             
1 49088U 21075P   21248.83335648 -.00004568  00000-0 -13644-3 0  9997
2 49088  87.4000   1.0930 0017183 249.5789  12.0879 15.34813438  3412
ONEWEB-0300             
1 49089U 21075Q   21249.16668981  .00078845  00000-0  21155-2 0  9996
2 49089  87.4014   0.9564 0016957 250.7507 199.8231 15.37513152  3621
ONEWEB-0301             
1 49090U 21075R   21248.83335648 -.00012992  00000-0 -34322-3 0  9996
2 49090  87.4015   1.0662 0019770 245.4432 206.9916 15.38423313  3292
ONEWEB-0302             
1 49091U 21075S   21248.83335648 -.00013108  00000-0 -34347-3 0  9994
2 49091  87.4003   1.0611 0019648 242.2877 223.5618 15.38675492  3365
ONEWEB-0304             
1 49092U 21075T   21248.83335648 -.00004140  00000-0 -12316-3 0  9993
2 49092  87.4022   1.0948 0019030 253.2437  20.5447 15.34928915  3428
ONEWEB-0305             
1 49093U 21075U   21248.83335648 -.00004468  00000-0 -12758-3 0  9997
2 49093  87.4036   1.0878 0019328 241.2381  94.9794 15.36194181  3298
ONEWEB-0308             
1 49094U 21075V   21249.16668981  .00078466  00000-0  20846-2 0  9997
2 49094  87.4027   0.9541 0018777 248.1887 219.7150 15.37787209  3628
ONEWEB-0309             
1 49095U 21075W   21248.83335648 -.00003550  00000-0 -10388-3 0  9997
2 49095  87.4018   1.0919 0019776 252.0372  45.2864 15.35490803  3277
ONEWEB-0310             
1 49096U 21075X   21249.16668981  .00076381  00000-0  20523-2 0  9995
2 49096  87.4044   0.9630 0016318 249.1755 195.6038 15.37489487  3626
ONEWEB-0311             
1 49097U 21075Y   21248.83335648 -.00006399  00000-0 -17916-3 0  9997
2 49097  87.4029   1.0834 0016959 241.9598 122.8820 15.36766114  3304
ONEWEB-0312             
1 49098U 21075Z   21248.83335648 -.00003597  00000-0 -10427-3 0  9995
2 49098  87.4039   1.0944 0020341 248.1548  63.9973 15.35769011  3494
ONEWEB-0313             
1 49099U 21075AA  21248.83335648 -.00005472  00000-0 -15439-3 0  9998
2 49099  87.4024   1.0842 0018404 241.0791 111.2433 15.36530988  3291
ONEWEB-0314             
1 49100U 21075AB  21248.83335648 -.00004122  00000-0 -12268-3 0  9999
2 49100  87.4014   1.0940 0018336 252.3629  21.2411 15.34933932  3516
ONEWEB-0315             
1 49101U 21075AC  21248.83335648 -.00008848  00000-0 -24316-3 0  9996
2 49101  87.4000   1.0729 0016104 250.1871 143.2008 15.37307027  3232
ONEWEB-0316             
1 49102U 21075AD  21248.83335648 -.00011493  00000-0 -29525-3 0  9994
2 49102  87.4046   1.0648 0017697 234.5766 266.0691 15.39330761  3291
ONEWEB-0317             
1 49103U 21075AE  21248.83335648 -.00008365  00000-0 -23070-3 0  9998
2 49103  87.4031   1.0795 0015778 249.1576 139.0568 15.37210998  3309
ONEWEB-0318             
1 49104U 21075AF  21248.83335648 -.00010907  00000-0 -27893-3 0  9991
2 49104  87.4019   1.0614 0017582 231.8278 276.3344 15.39475546  3321
ONEWEB-0319             
1 49105U 21075AG  21248.83335648 -.00004367  00000-0 -12466-3 0  9995
2 49105  87.4013   1.0857 0019749 242.8841  91.4617 15.36198492  3261
ONEWEB-0323             
1 49106U 21075AH  21248.83335648 -.00012995  00000-0 -33928-3 0  9998
2 49106  87.4031   1.0673 0019603 240.8885 230.9757 15.38788291  3464
ONEWEB-0329             
1 49107U 21075AJ  21248.83335648 -.00003796  00000-0 -11198-3 0  9993
2 49107  87.4014   1.0946 0018809 253.2483  30.6643 15.35234109  3277
ONEWEB-0330             
1 49108U 21075AK  21248.83335648 -.00003622  00000-0 -10645-3 0  9998
2 49108  87.4027   1.0917 0019305 252.7481  37.6384 15.35355980  3465
RSW-01                  
1 49112U 21076A   21249.32693509 -.00007583  00000-0 -13291-1 0  9990
2 49112  86.4027  61.3240 0013524 267.1094  92.9334 13.43268674  1720
PAYLOAD B               
1 49113U 21076B   21249.23245609  .01276245  00000-0  10769+1 0  9993
2 49113  86.3990  61.2069 0014293 273.5981  86.3556 13.84139373  1739
RSW-02                  
1 49114U 21076C   21249.33265384  .00000033  00000-0  31264-4 0  9993
2 49114  86.4028  61.3248 0017282 264.2537  95.6670 13.42694378  1722
TJS-7                   
1 49115U 21077A   21237.16728983 -.00095062  14176-5 -59743-2 0  9994
2 49115  28.4885 205.4703 7306595 180.0150  48.4419  2.27965529    16
DRAGON CRS-23           
1 49117U 21078A   21248.57300536  .00002684  00000-0  57624-4 0  9994
2 49117  51.6456 305.2285 0003220 358.0546 147.8585 15.48600853301051
OSCAR 7 (AO-7)          
1 07530U 74089B   21248.78296565 -.00000038  00000-0  46271-4 0  9994
2 07530 101.8624 223.2234 0011853 227.3441 252.0798 12.53650118141795
PHASE 3B (AO-10)        
1 14129U 83058B   21248.65019971 -.00000009  00000-0  00000-0 0  9996
2 14129  26.2490 141.8153 5988816   5.6073 358.9723  2.05868737259549
UOSAT 2 (UO-11)         
1 14781U 84021B   21249.20944786  .00000127  00000-0  21629-4 0  9998
2 14781  97.5971 245.0899 0008673 165.8015 194.3445 14.83319944 18902
LUSAT (LO-19)           
1 20442U 90005G   21248.92417701 -.00000003  00000-0  15396-4 0  9996
2 20442  98.7483 205.1512 0010683 286.7600  73.2411 14.32996085652419
EYESAT A (AO-27)        
1 22825U 93061C   21248.76681991  .00000007  00000-0  20740-4 0  9996
2 22825  98.9160 268.3445 0008882 154.5396 205.6224 14.30123325457466
ITAMSAT (IO-26)         
1 22826U 93061D   21248.50834458  .00000015  00000-0  23631-4 0  9998
2 22826  98.9103 267.9810 0009606 143.5620 216.6217 14.30463471457674
RADIO ROSTO (RS-15)     
1 23439U 94085A   21248.96761711 -.00000037  00000-0  15882-3 0  9990
2 23439  64.8138 245.7418 0163513 321.0993  37.8257 11.27570530 99416
JAS-2 (FO-29)           
1 24278U 96046B   21249.12102204 -.00000012  00000-0  27381-4 0  9997
2 24278  98.5602 306.3827 0349442 300.7516  55.9644 13.53105237237401
TECHSAT 1B (GO-32)      
1 25397U 98043D   21248.59374586 -.00000017  00000-0  12290-4 0  9991
2 25397  98.7756 193.9456 0001110 157.0956 203.0272 14.23714623202893
ISS (ZARYA)             
1 25544U 98067A   21249.46949571  .00002601  00000-0  56085-4 0  9990
2 25544  51.6451 300.7969 0003220   1.5252 105.5886 15.48605595301195
PCSAT (NO-44)           
1 26931U 01043C   21248.78437360 -.00000005  00000-0  29753-4 0  9990
2 26931  67.0504  73.1183 0005441 266.5655  93.4824 14.30630941 40686
SAUDISAT 1C (SO-50)     
1 27607U 02058C   21248.53408387  .00000054  00000-0  28265-4 0  9998
2 27607  64.5544  93.4575 0050583 356.8248   3.2526 14.75783818  6323
CUTE-1 (CO-55)          
1 27844U 03031E   21248.74257995  .00000073  00000-0  52515-4 0  9999
2 27844  98.6816 255.7393 0009365 200.1469 159.9340 14.22329966943397
CUBESAT XI-IV (CO-57)   
1 27848U 03031J   21248.75970108  .00000055  00000-0  44781-4 0  9998
2 27848  98.6870 256.3158 0009018 214.4333 145.6261 14.21904504943222
MOZHAYETS 4 (RS-22)     
1 27939U 03042A   21249.07072404  .00000074  00000-0  21938-4 0  9999
2 27939  98.1522  25.6525 0013442  31.3071 328.8917 14.67016736959342
CUBESAT XI-V            
1 28895U 05043F   21248.60022666  .00000178  00000-0  43084-4 0  9998
2 28895  98.0694  20.1355 0015783 321.5822  38.4256 14.63952753845733
FALCONSAT-3             
1 30776U 07006E   21248.56070495  .00006456  00000-0  15053-3 0  9997
2 30776  35.4344 305.0949 0003056 271.0308  89.0070 15.41599170805473
CUTE-1.7+APD II (CO-65) 
1 32785U 08021C   21249.05348583  .00000368  00000-0  44915-4 0  9994
2 32785  97.6187 224.8013 0014553  95.3812 264.9066 14.88788781724232
DELFI-C3 (DO-64)        
1 32789U 08021G   21248.70856530  .00003021  00000-0  19294-3 0  9995
2 32789  97.3715 280.9781 0010569 219.6358 140.4100 15.09340622728934
SEEDS II (CO-66)        
1 32791U 08021J   21248.66908276  .00000493  00000-0  54526-4 0  9996
2 32791  97.5778 230.2612 0014678  62.3710 297.8998 14.91502529724731
YUBILEINY (RS-30)       
1 32953U 08025A   21249.03291776  .00000021  00000-0  80971-4 0  9992
2 32953  82.5081   0.8137 0020070 159.1308 201.0597 12.43104324602997
KKS-1 (KISEKI)          
1 33499U 09002H   21249.09313396  .00000143  00000-0  28774-4 0  9991
2 33499  98.2565 120.8113 0009865 137.3305 222.8671 14.75692886678736
SWISSCUBE               
1 35932U 09051B   21249.00326780  .00000167  00000-0  48453-4 0  9993
2 35932  98.5979  91.5396 0007102 192.3120 167.7905 14.56572994634721
BEESAT-1                
1 35933U 09051C   21249.03455806  .00000140  00000-0  42293-4 0  9996
2 35933  98.5936  93.3596 0005086 203.2129 156.8839 14.56626041634848
ITUPSAT1                
1 35935U 09051E   21248.53691260  .00000128  00000-0  40461-4 0  9999
2 35935  98.6039  92.9685 0007329 209.7569 150.3211 14.55755221634429
XIWANG-1 (HOPE-1)       
1 36122U 09072B   21248.71355444 -.00000044  00000-0 -31187-5 0  9997
2 36122 100.1403 226.0803 0006800 278.5972  81.4372 13.16362359563345
JUGNU                   
1 37839U 11058B   21248.99585076  .00000311  00000-0  23615-4 0  9997
2 37839  19.9612 100.7230 0018905 260.3556 250.2204 14.12723272511972
SRMSAT                  
1 37841U 11058D   21249.12350439  .00000304  00000-0  21781-4 0  9993
2 37841  19.9710 173.5013 0012009 100.4494 287.1991 14.10702810511262
M-CUBED & EXP-1 PRIME   
1 37855U 11061F   21248.57765220  .00001679  00000-0  87113-4 0  9995
2 37855 101.7164 213.5713 0165544 192.1785 167.5404 15.08073602538252
